ONEWEB-0683             
1 56719U 23068K   25018.45153115 -.00000002  00000+0 -39637-4 0  9993
2 56719  87.9085   1.6666 0002084  81.6741 278.4626 13.15548329 81749
ONEWEB-0684             
1 56720U 23068L   25018.45944616  .00000134  00000+0  32202-3 0  9993
2 56720  87.9056   1.7207 0002174 129.4477 230.6846 13.15547358 81574
ONEWEB-0686             
1 56721U 23068M   25018.36427739  .00000037  00000+0  64148-4 0  9993
2 56721  87.9112 331.3969 0002093  86.0224 274.1146 13.16593725 83975
ONEWEB-0694             
1 56722U 23068N   25018.40703198  .00000080  00000+0  17652-3 0  9990
2 56722  87.9111 331.3081 0002172  74.3371 285.8000 13.16595029 84036
ONEWEB-0696             
1 56723U 23068P   25018.49272506  .00000089  00000+0  20180-3 0  9993
2 56723  87.9085   1.7104 0001582  93.6936 266.4375 13.15548280 81691
ONEWEB-0703             
1 56724U 23068Q   25018.50223066 -.00000033  00000+0 -12081-3 0  9995
2 56724  87.9084   1.7280 0000743 114.9345 245.1863 13.15547534 81580
ONEWEB-0721             
1 56725U 23068R   25018.59957857  .00000110  00000+0  10828-3 0  9998
2 56725  86.6737 249.8779 0006897 257.0957 102.9432 13.69058119 89860
ONEWEB-0015             
1 61594U 24188A   25018.58334491 -.00800874  00000+0 -14179+0 0  9990
2 61594  86.6599 131.7816 0003028 248.9159 218.2576 14.70173597  5727
